{
  "type": "FeatureCollection",
  "features": [
    {
      "type": "Feature",
      "properties": {
        "norad_id": 32376,
        "name": "COSMO-SKYMED 2",
        "group": "resource",
        "lat": -81.34500752798887,
        "lon": -115.8594903350427,
        "alt_km": 630.7854468283067,
        "timestamp": "2025-12-23T11:34:47.838632+00:00",
        "meta_object_name": "COSMO-SKYMED 2",
        "meta_object_id": "2007-059A",
        "meta_epoch": "2025-12-22T23:00:26.825184",
        "meta_mean_motion": 14.82154722,
        "meta_eccentricity": 0.00013183,
        "meta_inclination": 97.8805,
        "meta_ra_of_asc_node": 178.1286,
        "meta_arg_of_pericenter": 82.8014,
        "meta_mean_anomaly": 277.335,
        "meta_ephemeris_type": 0,
        "meta_classification_type": "U",
        "meta_norad_cat_id": 32376,
        "meta_element_set_no": 999,
        "meta_rev_at_epoch": 97589,
        "meta_bstar": 7.3893972e-05,
        "meta_mean_motion_dot": 5.36e-06,
        "meta_mean_motion_ddot": 0,
        "tle_line1": "1 32376U 07059A   25356.95864381  .00000536  00000+0  73894-4 0  9995",
        "tle_line2": "2 32376  97.8805 178.1286 0001318  82.8014 277.3350 14.82154722975890"
      },
      "geometry": {
        "type": "Point",
        "coordinates": [
          -115.8594903350427,
          -81.34500752798887
        ]
      }
    },
    {
      "type": "Feature",
      "properties": {
        "norad_id": 32382,
        "name": "RADARSAT-2",
        "group": "resource",
        "lat": 8.098390760259266,
        "lon": 0.6851562814874752,
        "alt_km": 793.3954997824749,
        "timestamp": "2025-12-23T11:34:47.838642+00:00",
        "meta_object_name": "RADARSAT-2",
        "meta_object_id": "2007-061A",
        "meta_epoch": "2025-12-22T23:47:12.016320",
        "meta_mean_motion": 14.29984335,
        "meta_eccentricity": 0.00011135,
        "meta_inclination": 98.5791,
        "meta_ra_of_asc_node": 1.4318,
        "meta_arg_of_pericenter": 84.8723,
        "meta_mean_anomaly": 275.2586,
        "meta_ephemeris_type": 0,
        "meta_classification_type": "U",
        "meta_norad_cat_id": 32382,
        "meta_element_set_no": 999,
        "meta_rev_at_epoch": 94077,
        "meta_bstar": 2.2531011e-05,
        "meta_mean_motion_dot": 1.4e-07,
        "meta_mean_motion_ddot": 0,
        "tle_line1": "1 32382U 07061A   25356.99111130  .00000014  00000+0  22531-4 0  9999",
        "tle_line2": "2 32382  98.5791   1.4318 0001113  84.8723 275.2586 14.29984335940774"
      },
      "geometry": {
        "type": "Point",
        "coordinates": [
          0.6851562814874752,
          8.098390760259266
        ]
      }
    },
    {
      "type": "Feature",
      "properties": {
        "norad_id": 32783,
        "name": "CARTOSAT-2A",
        "group": "resource",
        "lat": -69.31807603377942,
        "lon": 68.23596945190496,
        "alt_km": 633.9477516258148,
        "timestamp": "2025-12-23T11:34:47.838652+00:00",
        "meta_object_name": "CARTOSAT-2A",
        "meta_object_id": "2008-021A",
        "meta_epoch": "2025-12-23T03:46:48.316224",
        "meta_mean_motion": 14.78947939,
        "meta_eccentricity": 0.0011114,
        "meta_inclination": 97.7914,
        "meta_ra_of_asc_node": 46.6551,
        "meta_arg_of_pericenter": 330.2244,
        "meta_mean_anomaly": 29.8334,
        "meta_ephemeris_type": 0,
        "meta_classification_type": "U",
        "meta_norad_cat_id": 32783,
        "meta_element_set_no": 999,
        "meta_rev_at_epoch": 95278,
        "meta_bstar": -8.9827e-05,
        "meta_mean_motion_dot": -7.14e-06,
        "meta_mean_motion_ddot": 0,
        "tle_line1": "1 32783U 08021A   25357.15750366 -.00000714  00000+0 -89827-4 0  9990",
        "tle_line2": "2 32783  97.7914  46.6551 0011114 330.2244  29.8334 14.78947939952786"
      },
      "geometry": {
        "type": "Point",
        "coordinates": [
          68.23596945190496,
          -69.31807603377942
        ]
      }
    },
    {
      "type": "Feature",
      "properties": {
        "norad_id": 33320,
        "name": "HUANJING 1A (HJ-1A)",
        "group": "resource",
        "lat": -32.83509652424473,
        "lon": -9.6887488641767,
        "alt_km": 613.3750860715654,
        "timestamp": "2025-12-23T11:34:47.838662+00:00",
        "meta_object_name": "HUANJING 1A (HJ-1A)",
        "meta_object_id": "2008-041A",
        "meta_epoch": "2025-12-23T05:15:11.380608",
        "meta_mean_motion": 14.83426663,
        "meta_eccentricity": 0.0019377,
        "meta_inclination": 97.6543,
        "meta_ra_of_asc_node": 345.0799,
        "meta_arg_of_pericenter": 1.2882,
        "meta_mean_anomaly": 358.8379,
        "meta_ephemeris_type": 0,
        "meta_classification_type": "U",
        "meta_norad_cat_id": 33320,
        "meta_element_set_no": 999,
        "meta_rev_at_epoch": 93231,
        "meta_bstar": 0.00022497,
        "meta_mean_motion_dot": 1.802e-05,
        "meta_mean_motion_ddot": 0,
        "tle_line1": "1 33320U 08041A   25357.21888172  .00001802  00000+0  22497-3 0  9990",
        "tle_line2": "2 33320  97.6543 345.0799 0019377   1.2882 358.8379 14.83426663932316"
      },
      "geometry": {
        "type": "Point",
        "coordinates": [
          -9.6887488641767,
          -32.83509652424473
        ]
      }
    },
    {
      "type": "Feature",
      "properties": {
        "norad_id": 33321,
        "name": "HUANJING 1B (HJ-1B)",
        "group": "resource",
        "lat": 13.50593178903679,
        "lon": 170.84886941257486,
        "alt_km": 636.4516759808012,
        "timestamp": "2025-12-23T11:34:47.838672+00:00",
        "meta_object_name": "HUANJING 1B (HJ-1B)",
        "meta_object_id": "2008-041B",
        "meta_epoch": "2025-12-23T04:21:26.953344",
        "meta_mean_motion": 14.8284551,
        "meta_eccentricity": 0.0037869,
        "meta_inclination": 97.64,
        "meta_ra_of_asc_node": 348.7137,
        "meta_arg_of_pericenter": 42.648,
        "meta_mean_anomaly": 317.7663,
        "meta_ephemeris_type": 0,
        "meta_classification_type": "U",
        "meta_norad_cat_id": 33321,
        "meta_element_set_no": 999,
        "meta_rev_at_epoch": 93232,
        "meta_bstar": 0.00011478,
        "meta_mean_motion_dot": 8.89e-06,
        "meta_mean_motion_ddot": 0,
        "tle_line1": "1 33321U 08041B   25357.18156196  .00000889  00000+0  11478-3 0  9992",
        "tle_line2": "2 33321  97.6400 348.7137 0037869  42.6480 317.7663 14.82845510932320"
      },
      "geometry": {
        "type": "Point",
        "coordinates": [
          170.84886941257486,
          13.50593178903679
        ]
      }
    },
    {
      "type": "Feature",
      "properties": {
        "norad_id": 33331,
        "name": "GEOEYE 1",
        "group": "resource",
        "lat": 6.478179692929398,
        "lon": -110.44335035466543,
        "alt_km": 679.2361930535344,
        "timestamp": "2025-12-23T11:34:47.838700+00:00",
        "meta_object_name": "GEOEYE 1",
        "meta_object_id": "2008-042A",
        "meta_epoch": "2025-12-23T04:13:57.784800",
        "meta_mean_motion": 14.64713746,
        "meta_eccentricity": 0.0002913,
        "meta_inclination": 98.1239,
        "meta_ra_of_asc_node": 68.3251,
        "meta_arg_of_pericenter": 239.3644,
        "meta_mean_anomaly": 120.7272,
        "meta_ephemeris_type": 0,
        "meta_classification_type": "U",
        "meta_norad_cat_id": 33331,
        "meta_element_set_no": 999,
        "meta_rev_at_epoch": 92438,
        "meta_bstar": 0.00011627,
        "meta_mean_motion_dot": 5.71e-06,
        "meta_mean_motion_ddot": 0,
        "tle_line1": "1 33331U 08042A   25357.17636325  .00000571  00000+0  11627-3 0  9994",
        "tle_line2": "2 33331  98.1239  68.3251 0002913 239.3644 120.7272 14.64713746924388"
      },
      "geometry": {
        "type": "Point",
        "coordinates": [
          -110.44335035466543,
          6.478179692929398
        ]
      }
    },
    {
      "type": "Feature",
      "properties": {
        "norad_id": 33396,
        "name": "THEOS",
        "group": "resource",
        "lat": 71.19629159642142,
        "lon": -98.40738913159682,
        "alt_km": 817.2794350844242,
        "timestamp": "2025-12-23T11:34:47.838716+00:00",
        "meta_object_name": "THEOS",
        "meta_object_id": "2008-049A",
        "meta_epoch": "2025-12-23T04:18:54.709632",
        "meta_mean_motion": 14.20097559,
        "meta_eccentricity": 0.0001209,
        "meta_inclination": 98.5852,
        "meta_ra_of_asc_node": 54.961,
        "meta_arg_of_pericenter": 93.6262,
        "meta_mean_anomaly": 266.5054,
        "meta_ephemeris_type": 0,
        "meta_classification_type": "U",
        "meta_norad_cat_id": 33396,
        "meta_element_set_no": 999,
        "meta_rev_at_epoch": 89298,
        "meta_bstar": -8.6197e-05,
        "meta_mean_motion_dot": -2.26e-06,
        "meta_mean_motion_ddot": 0,
        "tle_line1": "1 33396U 08049A   25357.17979988 -.00000226  00000+0 -86197-4 0  9991",
        "tle_line2": "2 33396  98.5852  54.9610 0001209  93.6262 266.5054 14.20097559892984"
      },
      "geometry": {
        "type": "Point",
        "coordinates": [
          -98.40738913159682,
          71.19629159642142
        ]
      }
    }
  ]
}